[{"OBJECT_NAME":"ONEWEB-0171","OBJECT_ID":"2021-025AE","EPOCH":"2026-03-10T10:40:01.661088","MEAN_MOTION":13.13468785,"ECCENTRICITY":0.0001746,"INCLINATION":87.9034,"RA_OF_ASC_NODE":339.8762,"ARG_OF_PERICENTER":81.5933,"MEAN_ANOMALY":278.5394,"EPHEMERIS_TYPE":0,"CLASSIFICATION_TYPE":"U","NORAD_CAT_ID":48070,"ELEMENT_SET_NO":999,"REV_AT_EPOCH":24065,"BSTAR":0.00047514,"MEAN_MOTION_DOT":1.86e-6,"MEAN_MOTION_DDOT":0},{"OBJECT_NAME":"ONEWEB-0172","OBJECT_ID":"2021-025AF","EPOCH":"2026-03-10T04:41:42.566784","MEAN_MOTION":13.13470217,"ECCENTRICITY":0.00018532,"INCLINATION":87.9035,"RA_OF_ASC_NODE":339.9125,"ARG_OF_PERICENTER":81.8201,"MEAN_ANOMALY":278.3139,"EPHEMERIS_TYPE":0,"CLASSIFICATION_TYPE":"U","NORAD_CAT_ID":48071,"ELEMENT_SET_NO":999,"REV_AT_EPOCH":24151,"BSTAR":0.00092856848,"MEAN_MOTION_DOT":3.52e-6,"MEAN_MOTION_DDOT":0},{"OBJECT_NAME":"ONEWEB-0174","OBJECT_ID":"2021-025AG","EPOCH":"2026-03-10T06:04:35.071680","MEAN_MOTION":13.1347082,"ECCENTRICITY":0.0001792,"INCLINATION":87.9032,"RA_OF_ASC_NODE":339.9025,"ARG_OF_PERICENTER":72.8806,"MEAN_ANOMALY":287.2519,"EPHEMERIS_TYPE":0,"CLASSIFICATION_TYPE":"U","NORAD_CAT_ID":48072,"ELEMENT_SET_NO":999,"REV_AT_EPOCH":24084,"BSTAR":-0.00012429,"MEAN_MOTION_DOT":-3.3e-7,"MEAN_MOTION_DDOT":0},{"OBJECT_NAME":"ONEWEB-0175","OBJECT_ID":"2021-025AH","EPOCH":"2026-03-10T04:58:46.500960","MEAN_MOTION":13.13469217,"ECCENTRICITY":0.00018543,"INCLINATION":87.9044,"RA_OF_ASC_NODE":339.8871,"ARG_OF_PERICENTER":89.4791,"MEAN_ANOMALY":270.655,"EPHEMERIS_TYPE":0,"CLASSIFICATION_TYPE":"U","NORAD_CAT_ID":48073,"ELEMENT_SET_NO":999,"REV_AT_EPOCH":24049,"BSTAR":0.00079808253,"MEAN_MOTION_DOT":3.04e-6,"MEAN_MOTION_DDOT":0},{"OBJECT_NAME":"ONEWEB-0177","OBJECT_ID":"2021-025AJ","EPOCH":"2026-03-10T05:15:49.490784","MEAN_MOTION":13.1346972,"ECCENTRICITY":0.0001873,"INCLINATION":87.9046,"RA_OF_ASC_NODE":339.9062,"ARG_OF_PERICENTER":75.6429,"MEAN_ANOMALY":284.4908,"EPHEMERIS_TYPE":0,"CLASSIFICATION_TYPE":"U","NORAD_CAT_ID":48074,"ELEMENT_SET_NO":999,"REV_AT_EPOCH":24068,"BSTAR":-1.8034e-5,"MEAN_MOTION_DOT":6.0e-8,"MEAN_MOTION_DDOT":0},{"OBJECT_NAME":"ONEWEB-0178","OBJECT_ID":"2021-025AK","EPOCH":"2026-03-10T05:42:50.535360","MEAN_MOTION":13.13470034,"ECCENTRICITY":0.000196,"INCLINATION":87.9025,"RA_OF_ASC_NODE":339.9297,"ARG_OF_PERICENTER":82.9289,"MEAN_ANOMALY":277.2063,"EPHEMERIS_TYPE":0,"CLASSIFICATION_TYPE":"U","NORAD_CAT_ID":48075,"ELEMENT_SET_NO":999,"REV_AT_EPOCH":24073,"BSTAR":-0.00077868,"MEAN_MOTION_DOT":-2.72e-6,"MEAN_MOTION_DDOT":0},{"OBJECT_NAME":"ONEWEB-0108","OBJECT_ID":"2021-025AL","EPOCH":"2026-03-10T04:44:08.472192","MEAN_MOTION":13.13469655,"ECCENTRICITY":0.00015067,"INCLINATION":87.9044,"RA_OF_ASC_NODE":339.8984,"ARG_OF_PERICENTER":73.9862,"MEAN_ANOMALY":286.1433,"EPHEMERIS_TYPE":0,"CLASSIFICATION_TYPE":"U","NORAD_CAT_ID":48076,"ELEMENT_SET_NO":999,"REV_AT_EPOCH":24065,"BSTAR":0.0010613175,"MEAN_MOTION_DOT":4.0e-6,"MEAN_MOTION_DDOT":0},{"OBJECT_NAME":"ONEWEB-0169","OBJECT_ID":"2021-025AM","EPOCH":"2026-03-10T07:20:08.479680","MEAN_MOTION":13.13469668,"ECCENTRICITY":0.0001564,"INCLINATION":87.9035,"RA_OF_ASC_NODE":339.8932,"ARG_OF_PERICENTER":73.1042,"MEAN_ANOMALY":287.0259,"EPHEMERIS_TYPE":0,"CLASSIFICATION_TYPE":"U","NORAD_CAT_ID":48077,"ELEMENT_SET_NO":999,"REV_AT_EPOCH":23932,"BSTAR":-0.00059525,"MEAN_MOTION_DOT":-2.05e-6,"MEAN_MOTION_DDOT":0},{"OBJECT_NAME":"ONEWEB-0176","OBJECT_ID":"2021-031A","EPOCH":"2026-03-10T05:25:14.992608","MEAN_MOTION":13.14502515,"ECCENTRICITY":0.0001713,"INCLINATION":87.8987,"RA_OF_ASC_NODE":309.4466,"ARG_OF_PERICENTER":82.9975,"MEAN_ANOMALY":277.135,"EPHEMERIS_TYPE":0,"CLASSIFICATION_TYPE":"U","NORAD_CAT_ID":48210,"ELEMENT_SET_NO":999,"REV_AT_EPOCH":23531,"BSTAR":-0.00036392,"MEAN_MOTION_DOT":-1.22e-6,"MEAN_MOTION_DDOT":0},{"OBJECT_NAME":"ONEWEB-0184","OBJECT_ID":"2021-031B","EPOCH":"2026-03-10T02:56:49.176960","MEAN_MOTION":13.14502896,"ECCENTRICITY":0.00022115,"INCLINATION":87.9,"RA_OF_ASC_NODE":309.4577,"ARG_OF_PERICENTER":100.1872,"MEAN_ANOMALY":259.9508,"EPHEMERIS_TYPE":0,"CLASSIFICATION_TYPE":"U","NORAD_CAT_ID":48211,"ELEMENT_SET_NO":999,"REV_AT_EPOCH":23527,"BSTAR":0.00045899707,"MEAN_MOTION_DOT":1.83e-6,"MEAN_MOTION_DDOT":0},{"OBJECT_NAME":"ONEWEB-0179","OBJECT_ID":"2021-031C","EPOCH":"2026-03-10T02:14:34.473120","MEAN_MOTION":13.14503337,"ECCENTRICITY":0.00017258,"INCLINATION":87.899,"RA_OF_ASC_NODE":309.4663,"ARG_OF_PERICENTER":76.191,"MEAN_ANOMALY":283.9411,"EPHEMERIS_TYPE":0,"CLASSIFICATION_TYPE":"U","NORAD_CAT_ID":48212,"ELEMENT_SET_NO":999,"REV_AT_EPOCH":23531,"BSTAR":0.00015984106,"MEAN_MOTION_DOT":7.2e-7,"MEAN_MOTION_DDOT":0},{"OBJECT_NAME":"ONEWEB-0180","OBJECT_ID":"2021-031D","EPOCH":"2026-03-10T03:01:23.314656","MEAN_MOTION":13.1450219,"ECCENTRICITY":0.00019577,"INCLINATION":87.899,"RA_OF_ASC_NODE":309.4607,"ARG_OF_PERICENTER":79.4884,"MEAN_ANOMALY":280.6467,"EPHEMERIS_TYPE":0,"CLASSIFICATION_TYPE":"U","NORAD_CAT_ID":48213,"ELEMENT_SET_NO":999,"REV_AT_EPOCH":23520,"BSTAR":0.00048200926,"MEAN_MOTION_DOT":1.91e-6,"MEAN_MOTION_DDOT":0},{"OBJECT_NAME":"ONEWEB-0218","OBJECT_ID":"2021-031E","EPOCH":"2026-03-10T05:22:58.270656","MEAN_MOTION":13.14502882,"ECCENTRICITY":0.0002446,"INCLINATION":87.8988,"RA_OF_ASC_NODE":309.44,"ARG_OF_PERICENTER":94.1392,"MEAN_ANOMALY":266.0017,"EPHEMERIS_TYPE":0,"CLASSIFICATION_TYPE":"U","NORAD_CAT_ID":48214,"ELEMENT_SET_NO":999,"REV_AT_EPOCH":23537,"BSTAR":-0.00061583,"MEAN_MOTION_DOT":-2.16e-6,"MEAN_MOTION_DDOT":0},{"OBJECT_NAME":"ONEWEB-0209","OBJECT_ID":"2021-031F","EPOCH":"2026-03-10T05:06:58.640544","MEAN_MOTION":13.1450231,"ECCENTRICITY":0.00017859,"INCLINATION":87.898,"RA_OF_ASC_NODE":309.469,"ARG_OF_PERICENTER":75.4066,"MEAN_ANOMALY":284.7261,"EPHEMERIS_TYPE":0,"CLASSIFICATION_TYPE":"U","NORAD_CAT_ID":48215,"ELEMENT_SET_NO":999,"REV_AT_EPOCH":23537,"BSTAR":1.0389388e-5,"MEAN_MOTION_DOT":1.7e-7,"MEAN_MOTION_DDOT":0},{"OBJECT_NAME":"ONEWEB-0198","OBJECT_ID":"2021-031G","EPOCH":"2026-03-10T02:54:44.285760","MEAN_MOTION":13.14501638,"ECCENTRICITY":0.00020725,"INCLINATION":87.8979,"RA_OF_ASC_NODE":309.487,"ARG_OF_PERICENTER":81.0112,"MEAN_ANOMALY":279.1252,"EPHEMERIS_TYPE":0,"CLASSIFICATION_TYPE":"U","NORAD_CAT_ID":48216,"ELEMENT_SET_NO":999,"REV_AT_EPOCH":23547,"BSTAR":0.00063085039,"MEAN_MOTION_DOT":2.47e-6,"MEAN_MOTION_DDOT":0},{"OBJECT_NAME":"ONEWEB-0189","OBJECT_ID":"2021-031H","EPOCH":"2026-03-10T05:02:24.938304","MEAN_MOTION":13.14502185,"ECCENTRICITY":0.00020127,"INCLINATION":87.8987,"RA_OF_ASC_NODE":309.4458,"ARG_OF_PERICENTER":83.37,"MEAN_ANOMALY":276.7659,"EPHEMERIS_TYPE":0,"CLASSIFICATION_TYPE":"U","NORAD_CAT_ID":48217,"ELEMENT_SET_NO":999,"REV_AT_EPOCH":23522,"BSTAR":-0.00025591531,"MEAN_MOTION_DOT":-8.2e-7,"MEAN_MOTION_DDOT":0},{"OBJECT_NAME":"ONEWEB-0196","OBJECT_ID":"2021-031J","EPOCH":"2026-03-10T02:40:50.097216","MEAN_MOTION":13.14503039,"ECCENTRICITY":0.00017473,"INCLINATION":87.8988,"RA_OF_ASC_NODE":309.4763,"ARG_OF_PERICENTER":81.9972,"MEAN_ANOMALY":278.1356,"EPHEMERIS_TYPE":0,"CLASSIFICATION_TYPE":"U","NORAD_CAT_ID":48218,"ELEMENT_SET_NO":999,"REV_AT_EPOCH":23521,"BSTAR":0.00043818643,"MEAN_MOTION_DOT":1.75e-6,"MEAN_MOTION_DDOT":0}]
