ONEWEB-0171             
1 48070U 21025AE  26069.44446367  .00000186  00000+0  47514-3 0  9998
2 48070  87.9034 339.8762 0001746  81.5933 278.5394 13.13468785240658
ONEWEB-0172             
1 48071U 21025AF  26069.19563156  .00000352  00000+0  92857-3 0  9992
2 48071  87.9035 339.9125 0001853  81.8201 278.3139 13.13470217241518
ONEWEB-0174             
1 48072U 21025AG  26069.25318370 -.00000033  00000+0 -12429-3 0  9991
2 48072  87.9032 339.9025 0001792  72.8806 287.2519 13.13470820240844
ONEWEB-0175             
1 48073U 21025AH  26069.20748265  .00000304  00000+0  79808-3 0  9990
2 48073  87.9044 339.8871 0001854  89.4791 270.6550 13.13469217240492
ONEWEB-0177             
1 48074U 21025AJ  26069.21932281  .00000006  00000+0 -18034-4 0  9990
2 48074  87.9046 339.9062 0001873  75.6429 284.4908 13.13469720240684
ONEWEB-0178             
1 48075U 21025AK  26069.23808490 -.00000272  00000+0 -77868-3 0  9992
2 48075  87.9025 339.9297 0001960  82.9289 277.2063 13.13470034240732
ONEWEB-0108             
1 48076U 21025AL  26069.19732028  .00000400  00000+0  10613-2 0  9996
2 48076  87.9044 339.8984 0001506  73.9862 286.1433 13.13469655240657
ONEWEB-0169             
1 48077U 21025AM  26069.30565370 -.00000205  00000+0 -59525-3 0  9995
2 48077  87.9035 339.8932 0001564  73.1042 287.0259 13.13469668239329
ONEWEB-0176             
1 48210U 21031A   26069.22586797 -.00000122  00000+0 -36392-3 0  9993
2 48210  87.8987 309.4466 0001713  82.9975 277.1350 13.14502515235314
ONEWEB-0184             
1 48211U 21031B   26069.12279140  .00000183  00000+0  45900-3 0  9994
2 48211  87.9000 309.4577 0002211 100.1872 259.9508 13.14502896235278
ONEWEB-0179             
1 48212U 21031C   26069.09345455  .00000072  00000+0  15984-3 0  9990
2 48212  87.8990 309.4663 0001725  76.1910 283.9411 13.14503337235312
ONEWEB-0180             
1 48213U 21031D   26069.12596429  .00000191  00000+0  48201-3 0  9994
2 48213  87.8990 309.4607 0001957  79.4884 280.6467 13.14502190235203
ONEWEB-0218             
1 48214U 21031E   26069.22428554 -.00000216  00000+0 -61583-3 0  9997
2 48214  87.8988 309.4400 0002446  94.1392 266.0017 13.14502882235379
ONEWEB-0209             
1 48215U 21031F   26069.21317871  .00000017  00000+0  10389-4 0  9992
2 48215  87.8980 309.4690 0001785  75.4066 284.7261 13.14502310235372
ONEWEB-0198             
1 48216U 21031G   26069.12134590  .00000247  00000+0  63085-3 0  9993
2 48216  87.8979 309.4870 0002072  81.0112 279.1252 13.14501638235477
ONEWEB-0189             
1 48217U 21031H   26069.21001086 -.00000082  00000+0 -25592-3 0  9997
2 48217  87.8987 309.4458 0002012  83.3700 276.7659 13.14502185235226
ONEWEB-0196             
1 48218U 21031J   26069.11169094  .00000175  00000+0  43819-3 0  9994
2 48218  87.8988 309.4763 0001747  81.9972 278.1356 13.14503039235214
